NORAD_CAT_ID,OBJECT_NAME,OBJECT_TYPE,EPOCH,MEAN_MOTION,ECCENTRICITY,INCLINATION,RA_OF_ASC_NODE,ARG_OF_PERICENTER,MEAN_ANOMALY,BSTAR,MEAN_MOTION_DOT,MEAN_MOTION_DDOT,TLE_LINE0,TLE_LINE1,TLE_LINE2,SEMIMAJOR_AXIS,PERIOD,APOGEE,PERIGEE,DECAYED
51887.0,STARLINK-3551,PAYLOAD,2022-05-22 06:00:00,15.49878037,0.0001582,53.2133,111.684,46.0151,138.1475,0.00051566,0.00028916,0.0,0 STARLINK-3551,1 51887U 22022AM  22142.25001157  .00028916  00000-0  51566-3 0  9991,2 51887  53.2133 111.6840 0001582  46.0151 138.1475 15.49878037 13737,6795.22,92.911,418.16,416.01,0.0
51887.0,STARLINK-3551,PAYLOAD,2022-05-22 14:00:01,15.50128415,0.0001392,53.2148,110.0874,53.2563,191.7805,-0.011531,-0.00611454,0.0,0 STARLINK-3551,1 51887U 22022AM  22142.58334491 -.00611454  00000-0 -11531-1 0  9990,2 51887  53.2148 110.0874 0001392  53.2563 191.7805 15.50128415 13786,6794.488,92.896,417.299,415.407,0.0
51887.0,STARLINK-3551,PAYLOAD,2022-05-22 22:00:01,15.49658552,0.000131,53.2163,108.4906,53.6141,252.4391,-0.0040631,-0.00222827,0.0,0 STARLINK-3551,1 51887U 22022AM  22142.91668981 -.00222827  00000-0 -40631-2 0  9997,2 51887  53.2163 108.4906 0001310  53.6141 252.4391 15.49658552 13835,6795.861,92.924,418.616,416.836,0.0
51887.0,STARLINK-3551,PAYLOAD,2022-05-23 04:00:00,15.49629205,0.0001453999999999,53.2173,107.2967,53.0249,208.4027,-0.013863,-0.00721977,0.0,0 STARLINK-3551,1 51887U 22022AM  22143.16667824 -.00721977  00000-0 -13863-1 0  9996,2 51887  53.2173 107.2967 0001454  53.0249 208.4027 15.49629205 13876,6795.946999999999,92.925,418.8,416.824,0.0
51887.0,STARLINK-3551,PAYLOAD,2022-05-23 14:00:01,15.4899161,0.0001348,53.2174,105.306,47.9865,18.7139,-0.014175,-0.0072173999999999,0.0,0 STARLINK-3551,1 51887U 22022AM  22143.58334491 -.00721740  00000-0 -14175-1 0  9998,2 51887  53.2174 105.3060 0001348  47.9865  18.7139 15.48991610  1300,6797.812,92.964,420.593,418.76,0.0
51887.0,STARLINK-3551,PAYLOAD,2022-05-23 22:00:01,15.48480651,0.0001519,53.2175,103.7146,48.6509,77.643,-0.014384,-0.00719503,0.0,0 STARLINK-3551,1 51887U 22022AM  22143.91668981 -.00719503  00000-0 -14384-1 0  9995,2 51887  53.2175 103.7146 0001519  48.6509  77.6430 15.48480651  1307,6799.307,92.994,422.205,420.139,0.0
51887.0,STARLINK-3551,PAYLOAD,2022-05-24 06:00:02,15.47970361,0.0001654,53.2175,102.1271,46.9896,138.2189,-0.014638,-0.00719237,0.0,0 STARLINK-3551,1 51887U 22022AM  22144.25002315 -.00719237  00000-0 -14638-1 0  9992,2 51887  53.2175 102.1271 0001654  46.9896 138.2189 15.47970361 14040,6800.801,93.025,423.791,421.541,0.0
51887.0,STARLINK-3551,PAYLOAD,2022-05-24 12:57:06,15.48030189,2.55e-05,53.2143,100.7535,19.6071,340.4948,-0.0059603,-0.00305258,0.0,0 STARLINK-3551,1 51887U 22022AM  22144.53966268 -.00305258  00000-0 -59603-2 0  9995,2 51887  53.2143 100.7535 0000255  19.6071 340.4948 15.48030189 14080,6800.626,93.021,422.664,422.318,0.0
51887.0,STARLINK-3551,PAYLOAD,2022-05-24 22:00:00,15.46951785,0.0001395,53.2177,98.9503,55.2638,245.8732,-0.015202,-0.00720667,0.0,0 STARLINK-3551,1 51887U 22022AM  22144.91667824 -.00720667  00000-0 -15202-1 0  9994,2 51887  53.2177  98.9503 0001395  55.2638 245.8732 15.46951785 14138,6803.786,93.086,426.6,424.702,0.0
51887.0,STARLINK-3551,PAYLOAD,2022-05-25 14:00:01,15.45931258,0.000129,53.2176,95.7805,50.8504,3.8285,-0.015749,-0.00720611,0.0,0 STARLINK-3551,1 51887U 22022AM  22145.58334491 -.00720611  00000-0 -15749-1 0  9994,2 51887  53.2176  95.7805 0001290  50.8504   3.8285 15.45931258  1306,6806.78,93.148,429.523,427.767,0.0
51887.0,STARLINK-3551,PAYLOAD,2022-05-25 22:00:00,15.4530759,0.0001587,53.2167,94.1977,53.7741,56.819,-0.012557,-0.00565784,0.0,0 STARLINK-3551,1 51887U 22022AM  22145.91667824 -.00565784  00000-0 -12557-1 0  9992,2 51887  53.2167  94.1977 0001587  53.7741  56.8190 15.45307590 14294,6808.611,93.185,431.557,429.396,0.0
51887.0,STARLINK-3551,PAYLOAD,2022-05-26 06:00:00,15.4490898,0.0001631999999999,53.2175,92.6168,46.6267,119.1425,-0.0162129999999999,-0.00716549,0.0,0 STARLINK-3551,1 51887U 22022AM  22146.25001157 -.00716549  00000-0 -16213-1 0  9991,2 51887  53.2175  92.6168 0001632  46.6267 119.1425 15.44908980 14342,6809.783,93.209,432.759,430.536,0.0
51887.0,STARLINK-3551,PAYLOAD,2022-05-26 14:00:01,15.44402447,0.0001462,53.2174,91.0342,56.0746,164.3203,-0.016632,-0.0072196,0.0,0 STARLINK-3551,1 51887U 22022AM  22146.58334491 -.00721960  00000-0 -16632-1 0  9995,2 51887  53.2174  91.0342 0001462  56.0746 164.3203 15.44402447  1301,6811.271,93.24,434.132,432.141,0.0
51887.0,STARLINK-3551,PAYLOAD,2022-05-26 22:00:00,15.43891479,0.0001440999999999,53.2175,89.4546,56.8443,217.564,-0.016871,-0.00719835,0.0,0 STARLINK-3551,1 51887U 22022AM  22146.91667824 -.00719835  00000-0 -16871-1 0  9994,2 51887  53.2175  89.4546 0001441  56.8443 217.5640 15.43891479  1300,6812.774,93.271,435.621,433.657,0.0
51887.0,STARLINK-3551,PAYLOAD,2022-05-27 01:28:37,15.44388315,0.0003759,53.2145,88.7765,13.1449,346.9656,-0.0080536,-0.0036125,0.0,0 STARLINK-3551,1 51887U 22022AM  22147.06154709 -.00361250  00000-0 -80536-2 0  9998,2 51887  53.2145  88.7765 0003759  13.1449 346.9656 15.44388315 14475,6811.313,93.241,435.73800000000006,430.61800000000005,0.0
51887.0,STARLINK-3551,PAYLOAD,2022-05-27 14:00:01,15.42871411,0.0001219,53.2174,86.2991,56.1969,324.3997,-0.017481,-0.00720387,0.0,0 STARLINK-3551,1 51887U 22022AM  22147.58334491 -.00720387  00000-0 -17481-1 0  9991,2 51887  53.2174  86.2991 0001219  56.1969 324.3997 15.42871411 14553,6815.776999999999,93.332,438.473,436.811,0.0
51887.0,STARLINK-3551,PAYLOAD,2022-05-27 22:00:01,15.4236212,0.0001526,53.2174,84.7232,42.8141,30.0213,-0.017808,-0.00721319,0.0,0 STARLINK-3551,1 51887U 22022AM  22147.91668981 -.00721319  00000-0 -17808-1 0  9991,2 51887  53.2174  84.7232 0001526  42.8141  30.0213 15.42362120  1302,6817.276999999999,93.363,440.182,438.102,0.0
51887.0,STARLINK-3551,PAYLOAD,2022-05-28 14:00:01,15.41340195,0.0001426,53.2174,81.5748,56.8593,118.4239,-0.018324,-0.00717456,0.0,0 STARLINK-3551,1 51887U 22022AM  22148.58334491 -.00717456  00000-0 -18324-1 0  9992,2 51887  53.2174  81.5748 0001426  56.8593 118.4239 15.41340195 14708,6820.29,93.425,443.128,441.182,0.0
51887.0,STARLINK-3551,PAYLOAD,2022-05-28 19:28:01,15.41832296,0.0001339,53.2143,80.5073,81.6262,278.4896,-0.0076849999999999,-0.00317839,0.0,0 STARLINK-3551,1 51887U 22022AM  22148.81113414 -.00317839  00000-0 -76850-2 0  9998,2 51887  53.2143  80.5073 0001339  81.6262 278.4896 15.41832296 14744,6818.839,93.395,441.617,439.791,0.0
51887.0,STARLINK-3551,PAYLOAD,2022-05-29 06:00:02,15.40318247,0.0001534,53.2175,78.4331,48.8369,226.5702,-0.018856,-0.00713838,0.0,0 STARLINK-3551,1 51887U 22022AM  22149.25002315 -.00713838  00000-0 -18856-1 0  9994,2 51887  53.2175  78.4331 0001534  48.8369 226.5702 15.40318247 14803,6823.306,93.487,446.218,444.125,0.0
51887.0,STARLINK-3551,PAYLOAD,2022-05-29 14:00:01,15.39810781,0.0001322,53.2175,76.8614,54.3423,270.1119,-0.019311,-0.00718448,0.0,0 STARLINK-3551,1 51887U 22022AM  22149.58334491 -.00718448  00000-0 -19311-1 0  9992,2 51887  53.2175  76.8614 0001322  54.3423 270.1119 15.39810781  1303,6824.805,93.518,447.573,445.768,0.0
51887.0,STARLINK-3551,PAYLOAD,2022-05-29 22:00:00,15.39302644,0.0001489,53.2177,75.2934,42.9895,329.9617,-0.019726,-0.00721436,0.0,0 STARLINK-3551,1 51887U 22022AM  22149.91667824 -.00721436  00000-0 -19726-1 0  9999,2 51887  53.2177  75.2934 0001489  42.9895 329.9617 15.39302644  1303,6826.307,93.549,449.189,447.156,0.0
51887.0,STARLINK-3551,PAYLOAD,2022-05-30 06:00:00,15.38788812,0.0001322,53.2174,73.7272,52.3493,8.4878,-0.019862,-0.0071471999999999,0.0,0 STARLINK-3551,1 51887U 22022AM  22150.25001157 -.00714720  00000-0 -19862-1 0  9998,2 51887  53.2174  73.7272 0001322  52.3493   8.4878 15.38788812 14961,6827.8269999999975,93.58,450.594,448.789,0.0
51887.0,STARLINK-3551,PAYLOAD,2022-05-30 11:58:21,15.39287162,0.0001851,53.2145,72.5644,31.7696,328.3421,-0.0091194,-0.00345344,0.0,0 STARLINK-3551,1 51887U 22022AM  22150.49886271 -.00345344  00000-0 -91194-2 0  9993,2 51887  53.2145  72.5644 0001851  31.7696 328.3421 15.39287162 15009,6826.353,93.55,449.482,446.954,0.0
51887.0,STARLINK-3551,PAYLOAD,2022-05-30 14:00:01,15.38279586,0.00015,53.2175,72.1591,45.1033,63.0073,-0.020238,-0.00716083,0.0,0 STARLINK-3551,1 51887U 22022AM  22150.58334491 -.00716083  00000-0 -20238-1 0  9997,2 51887  53.2175  72.1591 0001500  45.1033  63.0073 15.38279586  1308,6829.334,93.611,452.223,450.174,0.0
51887.0,STARLINK-3551,PAYLOAD,2022-05-30 22:00:00,15.37770924,0.0001606,53.2176,70.5947,47.6066,107.163,-0.020651,-0.00718451,0.0,0 STARLINK-3551,1 51887U 22022AM  22150.91667824 -.00718451  00000-0 -20651-1 0  9993,2 51887  53.2176  70.5947 0001606  47.6066 107.1630 15.37770924 15064,6830.839,93.642,453.801,451.607,0.0
51887.0,STARLINK-3551,PAYLOAD,2022-05-31 06:00:02,15.37173819,0.0001453,53.2166,69.0332,47.6519,153.2742,-0.017442,-0.00596223,0.0,0 STARLINK-3551,1 51887U 22022AM  22151.25002315 -.00596223  00000-0 -17442-1 0  9994,2 51887  53.2166  69.0332 0001453  47.6519 153.2742 15.37173819  1305,6832.608,93.678,455.466,453.48,0.0
51887.0,STARLINK-3551,PAYLOAD,2022-05-31 22:00:00,15.36240909,0.0001579,53.2176,65.9069,47.7939,243.278,-0.02168,-0.00717687,0.0,0 STARLINK-3551,1 51887U 22022AM  22151.91667824 -.00717687  00000-0 -21680-1 0  9997,2 51887  53.2176  65.9069 0001579  47.7939 243.2780 15.36240909  1300,6835.374,93.735,458.318,456.16,0.0
51887.0,STARLINK-3551,PAYLOAD,2022-06-01 06:00:00,15.35730209,0.0001281,53.2173,64.3477,60.1026,275.1773,-0.021977,-0.00715726,0.0,0 STARLINK-3551,1 51887U 22022AM  22152.25001157 -.00715726  00000-0 -21977-1 0  9997,2 51887  53.2173  64.3477 0001281  60.1026 275.1773 15.35730209 15261,6836.889,93.766,459.63,457.879,0.0
